{
  "62893": {
    "noradId": "62893",
    "tle": [
      "1 62893C 25024Q   25286.06506944  .00017042  00000+0  61709-3 0  2866",
      "2 62893  43.0009  79.2461 0001500 270.3747 196.0920 15.27569702    13"
    ]
  },
  "62894": {
    "noradId": "62894",
    "tle": [
      "1 62894C 25024R   25286.06645833  .00011311  00000+0  40968-3 0  2865",
      "2 62894  43.0009  79.3242 0001575 267.9384 170.8038 15.27566231    17"
    ]
  },
  "62895": {
    "noradId": "62895",
    "tle": [
      "1 62895C 25024S   25286.06506944  .00017068  00000+0  61840-3 0  2862",
      "2 62895  43.0043  78.9541 0002350 269.6740 317.0977 15.27549517    15"
    ]
  },
  "62896": {
    "noradId": "62896",
    "tle": [
      "1 62896C 25024T   25286.06784722  .00010007  00000+0  36233-3 0  2869",
      "2 62896  43.0011  78.5555 0001351 271.0509 133.6731 15.27580787    16"
    ]
  },
  "62897": {
    "noradId": "62897",
    "tle": [
      "1 62897C 25024U   25286.06784722  .00015751  00000+0  57070-3 0  2863",
      "2 62897  43.0034  78.7065 0001654 269.6461  71.4615 15.27551728    19"
    ]
  },
  "62898": {
    "noradId": "62898",
    "tle": [
      "1 62898C 25024V   25286.07062500  .00017951  00000+0  65008-3 0  2862",
      "2 62898  43.0033  78.6340 0001009 263.0515 114.4281 15.27565862    17"
    ]
  },
  "62899": {
    "noradId": "62899",
    "tle": [
      "1 62899C 25024W   25286.08381944  .00012826  00000+0  46456-3 0  2862",
      "2 62899  43.0039  78.8993 0002058 270.9591  37.7998 15.27564425    12"
    ]
  },
  "62907": {
    "noradId": "62907",
    "tle": [
      "1 62907C 25027A   25286.11159722 -.00009565  00000+0 -74326-4 0  2862",
      "2 62907  43.0006 157.3355 0001571 266.3198 345.3322 15.70836070    17"
    ]
  },
  "62908": {
    "noradId": "62908",
    "tle": [
      "1 62908C 25027B   25286.11090278 -.00002060  00000+0 -16012-4 0  2864",
      "2 62908  43.0007 156.9654 0001599 268.9778 129.0509 15.70827482    19"
    ]
  },
  "62909": {
    "noradId": "62909",
    "tle": [
      "1 62909C 25027C   25286.11159722 -.00014192  00000+0 -11029-3 0  2866",
      "2 62909  43.0005 157.5587 0001620 260.0620 261.4102 15.70839287    10"
    ]
  },
  "62910": {
    "noradId": "62910",
    "tle": [
      "1 62910C 25027D   25286.10951389  .00004157  00000+0  32305-4 0  2865",
      "2 62910  43.0008 157.1231 0001729 264.1191  65.9342 15.70819743    13"
    ]
  },
  "62911": {
    "noradId": "62911",
    "tle": [
      "1 62911C 25027E   25286.11159722  .00003893  00000+0  30259-4 0  2860",
      "2 62911  43.0009 157.2591 0001741 261.7317  19.9997 15.70818310    16"
    ]
  },
  "62912": {
    "noradId": "62912",
    "tle": [
      "1 62912C 25027F   25286.11368056 -.00006722  00000+0 -52241-4 0  2864",
      "2 62912  43.0006 156.7973 0001681 268.8714 205.0103 15.70831541    12"
    ]
  },
  "62913": {
    "noradId": "62913",
    "tle": [
      "1 62913C 25027G   25286.11368056  .00047880  00000+0  37154-3 0  2868",
      "2 62913  43.0005 157.3954 0001775 249.3858 343.9161 15.70812637    16"
    ]
  },
  "62914": {
    "noradId": "62914",
    "tle": [
      "1 62914C 25027H   25286.11020833 -.00009186  00000+0 -71385-4 0  2861",
      "2 62914  43.0005 157.4905 0001494 255.5922 288.0771 15.70835598    10"
    ]
  },
  "62915": {
    "noradId": "62915",
    "tle": [
      "1 62915C 25027J   25286.11298611 -.00007440  00000+0 -57816-4 0  2867",
      "2 62915  43.0003 157.4860 0001574 268.6144 285.6242 15.70833671    15"
    ]
  },
  "62916": {
    "noradId": "62916",
    "tle": [
      "1 62916C 25027K   25286.10881944 -.00006842  00000+0 -53171-4 0  2869",
      "2 62916  43.0006 157.6472 0001794 268.8406 206.8454 15.70832994    14"
    ]
  },
  "62917": {
    "noradId": "62917",
    "tle": [
      "1 62917C 25027L   25286.11437500  .00002355  00000+0  18303-4 0  2867",
      "2 62917  43.0009 157.1647 0001691 265.0132  62.5040 15.70821601    19"
    ]
  },
  "62918": {
    "noradId": "62918",
    "tle": [
      "1 62918C 25027M   25286.10812500 -.00004631  00000+0 -35989-4 0  2864",
      "2 62918  43.0008 157.0523 0001570 271.2049  81.0404 15.70828616    16"
    ]
  },
  "62919": {
    "noradId": "62919",
    "tle": [
      "1 62919C 25027N   25286.11159722 -.00002215  00000+0 -17211-4 0  2860",
      "2 62919  43.0008 156.8813 0001649 264.1104 167.9194 15.70827136    12"
    ]
  },
  "62920": {
    "noradId": "62920",
    "tle": [
      "1 62920C 25027P   25286.06923611 -.00039027  00000+0 -14141-2 0  2860",
      "2 62920  43.0000 242.4194 0001456 259.9032 229.2973 15.27603684    17"
    ]
  },
  "62921": {
    "noradId": "62921",
    "tle": [
      "1 62921C 25027Q   25286.06576389 -.00039383  00000+0 -14271-2 0  2866",
      "2 62921  43.0021 242.6244 0001626 270.6729 121.5851 15.27602734    15"
    ]
  },
  "62922": {
    "noradId": "62922",
    "tle": [
      "1 62922C 25027R   25286.06506944 -.00042905  00000+0 -15549-2 0  2860",
      "2 62922  43.0007 242.4880 0001155 269.2705 175.7805 15.27602363    17"
    ]
  },
  "62923": {
    "noradId": "62923",
    "tle": [
      "1 62923C 25027S   25286.06784722 -.00020966  00000+0 -75967-3 0  2867",
      "2 62923  43.0038 242.7667 0001507 262.9144  77.1501 15.27587312    10"
    ]
  },
  "62924": {
    "noradId": "62924",
    "tle": [
      "1 62924C 25027T   25286.06784722 -.00039791  00000+0 -14418-2 0  2867",
      "2 62924  43.0018 242.5571 0001330 253.4591 171.5070 15.27605090    10"
    ]
  },
  "62925": {
    "noradId": "62925",
    "tle": [
      "1 62925C 25027U   25286.06993056 -.00037374  00000+0 -13542-2 0  2862",
      "2 62925  43.0011 242.4934 0001396 263.0533 194.6078 15.27601936    10"
    ]
  },
  "62926": {
    "noradId": "62926",
    "tle": [
      "1 62926C 25027V   25286.06923611 -.00040315  00000+0 -14607-2 0  2865",
      "2 62926  43.0038 242.7044 0001529 259.2009 109.7252 15.27607637    13"
    ]
  },
  "62927": {
    "noradId": "62927",
    "tle": [
      "1 62927C 25027W   25286.06437500 -.00045963  00000+0 -16654-2 0  2861",
      "2 62927  43.0035 242.8198 0001473 256.1054  50.6815 15.27611127    14"
    ]
  },
  "62948": {
    "noradId": "62948",
    "tle": [
      "1 62948C 25029A   25286.07201389  .00003243  00000+0  10930-3 0  2866",
      "2 62948  53.1572 195.7828 0001055  70.6434 147.8177 15.30184709    13"
    ]
  },
  "62949": {
    "noradId": "62949",
    "tle": [
      "1 62949C 25029B   25286.06993056  .00003290  00000+0  11087-3 0  2861",
      "2 62949  53.1589 195.6303 0001192  84.8921 209.3262 15.30187002    17"
    ]
  },
  "62950": {
    "noradId": "62950",
    "tle": [
      "1 62950C 25029C   25286.07201389 -.00003150  00000+0 -10618-3 0  2861",
      "2 62950  53.1565 198.1471 0001311  86.5898  12.6349 15.30189751    16"
    ]
  },
  "62951": {
    "noradId": "62951",
    "tle": [
      "1 62951C 25029D   25286.07131944  .00006614  00000+0  22280-3 0  2865",
      "2 62951  53.1566 195.9025 0001160  62.1677  94.2462 15.30200614    19"
    ]
  },
  "62952": {
    "noradId": "62952",
    "tle": [
      "1 62952C 25029E   25286.07131944 -.00006869  00000+0 -23164-3 0  2862",
      "2 62952  53.1567 198.0802 0001231  98.6928  31.6409 15.30182189    12"
    ]
  },
  "62953": {
    "noradId": "62953",
    "tle": [
      "1 62953C 25029F   25286.07131944  .00007273  00000+0  24511-3 0  2868",
      "2 62953  53.1567 195.8666 0001405  80.2981  93.6185 15.30185621    18"
    ]
  },
  "62954": {
    "noradId": "62954",
    "tle": [
      "1 62954C 25029G   25286.06576389  .00007058  00000+0  23794-3 0  2867",
      "2 62954  53.1581 195.7418 0001423  70.7540 148.1675 15.30177779    19"
    ]
  },
  "62955": {
    "noradId": "62955",
    "tle": [
      "1 62955C 25029H   25286.06993056 -.00009786  00000+0 -32989-3 0  2860",
      "2 62955  53.1566 198.0740 0001227  86.0196  42.4399 15.30195751    15"
    ]
  },
  "62956": {
    "noradId": "62956",
    "tle": [
      "1 62956C 25029J   25286.06784722  .00000724  00000+0  24394-4 0  2862",
      "2 62956  53.1568 195.8594 0001241  78.6057  87.7981 15.30190780    15"
    ]
  },
  "62957": {
    "noradId": "62957",
    "tle": [
      "1 62957C 25029K   25286.06854167  .00018583  00000+0  62643-3 0  2864",
      "2 62957  53.1581 198.3492 0001256 112.6959 234.3240 15.30166755    15"
    ]
  },
  "62958": {
    "noradId": "62958",
    "tle": [
      "1 62958C 25029L   25286.07062500 -.00002292  00000+0 -77277-4 0  2860",
      "2 62958  53.1568 195.8561 0001230  87.7641  88.1554 15.30187924    16"
    ]
  },
  "62959": {
    "noradId": "62959",
    "tle": [
      "1 62959C 25029M   25286.06854167 -.00004891  00000+0 -16483-3 0  2866",
      "2 62959  53.1588 198.4843 0001326  68.9487 208.2606 15.30197396    13"
    ]
  },
  "62960": {
    "noradId": "62960",
    "tle": [
      "1 62960C 25029N   25286.06784722  .00006996  00000+0  23582-3 0  2861",
      "2 62960  53.1587 198.4181 0001127  73.3351 234.9569 15.30181438    12"
    ]
  },
  "62961": {
    "noradId": "62961",
    "tle": [
      "1 62961C 25029P   25286.06993056  .00008672  00000+0  29231-3 0  2864",
      "2 62961  53.1590 198.4462 0001199  92.9929 209.3202 15.30179961    14"
    ]
  },
  "62962": {
    "noradId": "62962",
    "tle": [
      "1 62962C 25029Q   25286.06854167  .00014315  00000+0  48253-3 0  2860",
      "2 62962  53.1590 197.8096 0001178  92.0163 168.3723 15.30172376    14"
    ]
  },
  "62963": {
    "noradId": "62963",
    "tle": [
      "1 62963C 25029R   25286.07131944 -.00003356  00000+0 -11312-3 0  2864",
      "2 62963  53.1568 195.8745 0001290  75.7311  92.3601 15.30197325    19"
    ]
  },
  "62964": {
    "noradId": "62964",
    "tle": [
      "1 62964C 25029S   25286.06993056  .00023592  00000+0  79544-3 0  2867",
      "2 62964  53.1569 195.8258 0001160  98.9318  90.6178 15.30156405    14"
    ]
  }
}